OSCAR 7 (AO-7)          
1 07530U 74089B   25176.99698801 -.00000040  00000+0  40065-4 0  9997
2 07530 101.9928 181.4358 0012655  90.8358 296.7715 12.53689788316126
PHASE 3B (AO-10)        
1 14129U 83058B   25176.40454699 -.00000099  00000+0  00000+0 0  9990
2 14129  26.6374 279.8308 6064134  16.5340 356.6382  2.05869459288141
UOSAT 2 (UO-11)         
1 14781U 84021B   25176.85912574  .00000898  00000+0  10020-3 0  9998
2 14781  97.7550 142.9066 0006336 286.7234  73.3287 14.89427177204066
LUSAT (LO-19)           
1 20442U 90005G   25176.57488430  .00000078  00000+0  44580-4 0  9995
2 20442  98.8976 183.2419 0011828 166.3903 193.7601 14.33959828851347
EYESAT A (AO-27)        
1 22825U 93061C   25176.44169315  .00000074  00000+0  45234-4 0  9994
2 22825  98.7360 238.0760 0009452  69.9117 290.3082 14.30804042655986
ITAMSAT (IO-26)         
1 22826U 93061D   25176.45592975  .00000084  00000+0  48807-4 0  9998
2 22826  98.7307 237.9749 0009806  55.5852 304.6257 14.31217691656289
RADIO ROSTO (RS-15)     
1 23439U 94085A   25176.94024893 -.00000049  00000+0 -17610-3 0  9999
2 23439  64.8133 159.3488 0145769  71.1472 290.5196 11.27581490255732
JAS-2 (FO-29)           
1 24278U 96046B   25176.42604531  .00000003  00000+0  42675-4 0  9994
2 24278  98.5741  68.2321 0348984 301.6612  55.0927 13.53249730424911
TECHSAT 1B (GO-32)      
1 25397U 98043D   25176.91927435  .00000027  00000+0  31882-4 0  9995
2 25397  98.9709 156.3799 0001904 129.3103 230.8244 14.24318573400615
ISS (ZARYA)             
1 25544U 98067A   25177.22389621  .00008071  00000+0  14796-3 0  9990
2 25544  51.6358 262.2903 0002177 292.8641  67.2118 15.50247662516569
PCSAT (NO-44)           
1 26931U 01043C   25176.15383247  .00000079  00000+0  60743-4 0  9992
2 26931  67.0511  87.5737 0006131 276.6412  83.3992 14.31741308239335
SAUDISAT 1C (SO-50)     
1 27607U 02058C   25176.34679328  .00000940  00000+0  13452-3 0  9990
2 27607  64.5516 151.8651 0058173 330.5671  29.2161 14.81661591211565
CUTE-1 (CO-55)          
1 27844U 03031E   25176.48928767  .00000205  00000+0  10842-3 0  9998
2 27844  98.6753 184.5572 0010464 135.9188 224.2826 14.24006968140930
CUBESAT XI-IV (CO-57)   
1 27848U 03031J   25175.95305241  .00000185  00000+0  10087-3 0  9997
2 27848  98.6783 184.0221 0009980 153.5945 206.5744 14.23339890140553
MOZHAYETS 4 (RS-22)     
1 27939U 03042A   25177.11759794  .00000676  00000+0  11517-3 0  9990
2 27939  98.3291 346.9695 0010564 322.8821 105.4040 14.72386639163269
CUBESAT XI-V            
1 28895U 05043F   25176.84295742  .00000987  00000+0  16895-3 0  9991
2 28895  98.2516 321.3981 0013282 253.6203 106.3543 14.71057731 49336
CUTE-1.7+APD II (CO-65) 
1 32785U 08021C   25176.96635976  .00002567  00000+0  18739-3 0  9998
2 32785  97.7856 148.2534 0010756 147.1549 213.0347 15.04557478931612
SEEDS II (CO-66)        
1 32791U 08021J   25176.38310312  .00006781  00000+0  32718-3 0  9990
2 32791  97.7274 156.7800 0005781 107.7010 252.4855 15.19012491932899
YUBILEINY (RS-30)       
1 32953U 08025A   25177.06115408  .00000044  00000+0  24442-3 0  9990
2 32953  82.5017 216.9287 0019365  13.9562 346.2049 12.43165675775582
KKS-1 (KISEKI)          
1 33499U 09002H   25177.00161098  .00000936  00000+0  12594-3 0  9997
2 33499  98.1196  89.2908 0008457  14.0867 346.0579 14.81665741883859
SWISSCUBE               
1 35932U 09051B   25176.44709689  .00000692  00000+0  14983-3 0  9999
2 35932  98.4289  72.9787 0005668 238.0336 122.0314 14.61368694837036
BEESAT-1                
1 35933U 09051C   25176.77034416  .00000563  00000+0  12529-3 0  9996
2 35933  98.4220  73.6333 0004046 252.5798 107.4960 14.60778328837132
ITUPSAT1                
1 35935U 09051E   25176.18359785  .00000541  00000+0  12402-3 0  9998
2 35935  98.4315  72.5645 0006257 266.4592  93.5891 14.59573343836679
XIWANG-1 (HOPE-1)       
1 36122U 09072B   25177.11018652 -.00000050  00000+0 -16441-4 0  9994
2 36122 100.3496 132.5387 0007215 332.6485  27.4248 13.16425573746252
O/OREOS (USA 219)       
1 37224U 10062C   25176.39356104  .00001501  00000+0  15578-3 0  9994
2 37224  71.9690 167.1745 0014026  18.4622 341.7053 14.91523384 63405
JUGNU                   
1 37839U 11058B   25176.42129147  .00000399  00000+0  69105-4 0  9991
2 37839  19.9617 315.6321 0018718  96.2103 299.7130 14.13608206708481
SRMSAT                  
1 37841U 11058D   25177.01104834  .00000359  00000+0  50999-4 0  9993
2 37841  19.9732  55.1134 0011734 245.3508 241.3747 14.11440481707659
STRAND-1                
1 39090U 13009E   25176.97067312  .00000203  00000+0  83214-4 0  9996
2 39090  98.3827   1.2362 0008066 208.5380 151.5366 14.36828866645925
ZACUBE-1 (TSHEPISOSAT)  
1 39417U 13066B   25176.43063437  .00004078  00000+0  35467-3 0  9997
2 39417  97.7811 133.3604 0044001   1.9078 358.2304 14.96785083627284
GOMX-1                  
1 39430U 13066Q   25177.05314550  .00001386  00000+0  22074-3 0  9995
2 39430  97.6820  34.7056 0133294 139.2179 221.9097 14.67691606617822
